SCD 1                   
1 22490U 93009B   23031.05527765  .00000487  00000+0  85217-4 0  9999
2 22490  24.9684 253.7303 0042978  59.6089 100.7489 14.44801851582507
TECHSAT 1B (GO-32)      
1 25397U 98043D   23031.47174047  .00000104  00000+0  65233-4 0  9990
2 25397  98.8502 347.8940 0001745 133.3347 226.7977 14.23812847275875
SCD 2                   
1 25504U 98060A   23031.33380814  .00000471  00000+0  82972-4 0  9991
2 25504  24.9956 108.1400 0017453  67.2933 344.2037 14.44308744281820
LANDSAT 7               
1 25682U 99020A   23031.60881220  .00000576  00000+0  12953-3 0  9999
2 25682  97.9503  75.7042 0001647  91.0342 269.1031 14.59905969265855
DLR-TUBSAT              
1 25757U 99029B   23031.43912914  .00000123  00000+0  42323-4 0  9990
2 25757  98.5168 341.5515 0015186 139.3599 220.8731 14.51574243254357
TERRA                   
1 25994U 99068A   23031.53596184  .00000457  00000+0  10685-3 0  9999
2 25994  98.1122 103.2169 0002622 118.7959 353.3804 14.59006875229732
MAROC-TUBSAT            
1 27004U 01056D   23031.35856186 -.00000016  00000+0  33716-4 0  9997
2 27004  99.6550 177.1441 0020542  66.9660 312.5191 13.70167157 57350
AQUA                    
1 27424U 02022A   23031.57335418  .00000916  00000+0  21103-3 0  9995
2 27424  98.2733 336.6201 0000775 102.8085  13.2178 14.57639111103416
IRS-P6 (RESOURCESAT-1)  
1 28051U 03046A   23031.58510008  .00000338  00000+0  13280-3 0  9995
2 28051  98.3789 100.9675 0059775  59.5373 301.1692 14.34240696  3728
SHIYAN 1 (SY-1)         
1 28220U 04012A   23031.48722539  .00005664  00000+0  41892-3 0  9997
2 28220  97.9887  35.4148 0009611 291.2908  68.7290 15.03576054 24269
AURA                    
1 28376U 04026A   23031.54866062  .00000921  00000+0  21470-3 0  9992
2 28376  98.2353 336.8841 0001095  94.6964 265.4360 14.57060094986447
IRS-P5 (CARTOSAT-1)     
1 28649U 05017A   23031.13467214  .00001326  00000+0  16287-3 0  9997
2 28649  97.6892  88.8489 0001881 136.6382 223.4981 14.84652182960515
SINAH 1                 
1 28893U 05043D   23031.33276529  .00000466  00000+0  10243-3 0  9996
2 28893  98.1337 156.0033 0015152 174.4190 185.7183 14.61888974920247
EROS B                  
1 29079U 06014A   23031.60215370  .00013319  00000+0  56781-3 0  9997
2 29079  97.3615 153.7379 0012580 171.6950 244.1405 15.22989749931122
RESURS-DK 1             
1 29228U 06021A   23031.41267674  .00001522  00000+0  11717-3 0  9997
2 29228  69.9341 267.7952 0001635  37.8489 322.2787 15.03967154916647
ARIRANG-2 (KOMPSAT-2)   
1 29268U 06031A   23031.56974514  .00000443  00000+0  95209-4 0  9996
2 29268  97.9241 256.4295 0015387  21.2323 338.9503 14.62941466881248
LAPAN-TUBSAT            
1 29709U 07001A   23031.46960845  .00000996  00000+0  12983-3 0  9995
2 29709  98.0000 358.7071 0011505 231.4920 128.5256 14.82774249868290
CARTOSAT-2 (IRS-P7)     
1 29710U 07001B   23031.29711832  .00024026  00000+0  46877-3 0  9997
2 29710  97.8754 156.6078 0125218 333.7299  25.7628 15.39305111871150
HAIYANG-1B              
1 31113U 07010A   23031.04062340  .00000095  00000+0  52436-4 0  9992
2 31113  98.3052  51.0735 0012628 257.1182 102.8591 14.30371818824303
COSMO-SKYMED 1          
1 31598U 07023A   23031.52007985  .00000358  00000+0  51486-4 0  9996
2 31598  97.8884 216.9475 0001362  92.1147 268.0251 14.82150555846741
TERRASAR-X              
1 31698U 07026A   23028.65993347 -.00000722  00000+0 -31200-4 0  9995
2 31698  97.4459  38.0305 0002280 100.5167  37.7518 15.19144402866303
WORLDVIEW-1 (WV-1)      
1 32060U 07041A   23031.30557750  .00007547  00000+0  30731-3 0  9993
2 32060  97.3896 152.6578 0005446  27.2287 332.9235 15.24764637855107
YAOGAN 3                
1 32289U 07055A   23031.53000010  .00001702  00000+0  22091-3 0  9995
2 32289  97.9333  56.5001 0001716 104.9684 255.1705 14.82062288822811
COSMO-SKYMED 2          
1 32376U 07059A   23031.48634856  .00001053  00000+0  13887-3 0  9993
2 32376  97.8882 216.9131 0001502  90.9202 269.2194 14.82144117819484
RADARSAT-2              
1 32382U 07061A   23031.53097950  .00000214  00000+0  10000-3 0  9999
2 32382  98.5784  40.1497 0001167 104.1474  48.4162 14.29983733789897
CARTOSAT-2A             
1 32783U 08021A   23031.46590249  .00000803  00000+0  11636-3 0  9992
2 32783  97.9364  94.0098 0013167 146.2620 213.9442 14.78692438796719
HUANJING 1A (HJ-1A)     
1 33320U 08041A   23031.51071973  .00000856  00000+0  12469-3 0  9999
2 33320  97.6573  58.6181 0020152 206.5834 153.4348 14.78102703776075
HUANJING 1B (HJ-1B)     
1 33321U 08041B   23031.45734989  .00001839  00000+0  25791-3 0  9990
2 33321  97.6722  62.5922 0032735 227.0243 132.8205 14.78262222776066
GEOEYE 1                
1 33331U 08042A   23031.50112710  .00000582  00000+0  11894-3 0  9993
2 33331  98.0996 108.0583 0007797 286.5466  73.4870 14.64444580769740
THEOS                   
1 33396U 08049A   23031.52526138  .00000158  00000+0  94908-4 0  9993
2 33396  98.7216 101.3907 0001041 103.2511  13.5327 14.20041108743038
COSMO-SKYMED 3          
1 33412U 08054A   23031.51139468  .00002386  00000+0  23642-3 0  9994
2 33412  97.8868 220.5773 0018756  83.8893 276.4447 14.92663175772186
YAOGAN 4                
1 33446U 08061A   23031.26307407  .00001107  00000+0  16108-3 0  9990
2 33446  97.8401 329.7584 0017425 114.4421 245.8609 14.77730991763238
GOSAT (IBUKI)           
1 33492U 09002A   23031.28322864 -.00003247  00000+0 -56469-3 0  9996
2 33492  98.1308 147.1249 0000902  71.5610 288.5692 14.67513506750630
YAOGAN 6                
1 34839U 09021A   23031.48833653  .00007392  00000+0  23734-3 0  9990
2 34839  97.1096   6.6607 0024024 195.5809 164.4697 15.32298257766117
DEIMOS-1                
1 35681U 09041A   23031.51787797  .00000691  00000+0  11676-3 0  9996
2 35681  97.6909 235.6129 0001376 151.6194 291.8916 14.72275682725326
DUBAISAT-1              
1 35682U 09041B   23031.36400103  .00000975  00000+0  17171-3 0  9994
2 35682  97.8278 179.9475 0012231  64.9189 295.3288 14.69599892723758
OCEANSAT-2              
1 35931U 09051A   23031.52376092 -.00053178  00000+0 -25643-1 0  9995
2 35931  98.2962 121.1147 0004850 196.4300 163.6849 14.19029065706834
WORLDVIEW-2 (WV-2)      
1 35946U 09055A   23031.48284985  .00000185  00000+0  76363-4 0  9995
2 35946  98.4641 108.5052 0001477  15.8321 344.2911 14.37357990698679
SMOS                    
1 36036U 09059A   23031.53458079  .00000376  00000+0  13366-3 0  9998
2 36036  98.4404 220.7574 0001026  83.6502 276.4803 14.39790510696087
YAOGAN 7                
1 36110U 09069A   23031.10767713  .00000732  00000+0  11544-3 0  9995
2 36110  98.1745 258.5126 0027043  40.5077 319.8129 14.75270934707701
TANDEM-X                
1 36605U 10030A   23031.14910854  .00004269  00000+0  20640-3 0  9990
2 36605  97.4444  40.4874 0002266  85.9656 336.7919 15.19148670699437
CARTOSAT-2B             
1 36795U 10035A   23031.43595505  .00001001  00000+0  14364-3 0  9996
2 36795  97.9308  93.9700 0012409 224.5811 135.4393 14.78644051677755
YAOGAN 10               
1 36834U 10038A   23031.50484053  .00000969  00000+0  13019-3 0  9994
2 36834  97.9713  46.2317 0001565  92.1708 267.9668 14.81558846674549
COSMO-SKYMED 4          
1 37216U 10060A   23031.49900967 -.00000569  00000+0 -64974-4 0  9994
2 37216  97.8872 216.9190 0001242  78.7138 281.4343 14.82141082662036
RESOURCESAT-2           
1 37387U 11015A   23031.58381353  .00000177  00000+0  10010-3 0  9990
2 37387  98.6387 104.6295 0005309 124.9178 235.2480 14.21674182611577
HAIYANG-2A              
1 37781U 11043A   23031.52067066  .00000013  00000+0  55562-4 0  9996
2 37781  99.3204  38.4291 0000749  37.2049 322.9154 13.78742201576815
RASAT                   
1 37791U 11044D   23031.47727933  .00000912  00000+0  17747-3 0  9998
2 37791  98.0898 125.9190 0022707 129.1581 231.1630 14.65261788612501
MEGHA-TROPIQUES         
1 37838U 11058A   23030.62926802  .00438086  28343-4  18973-2 0  9990
2 37838  19.9610 216.4087 0265661 144.5076 217.3335 15.46574961584502
SRMSAT                  
1 37841U 11058D   23031.14723528  .00000444  00000+0  98958-4 0  9993
2 37841  19.9730 318.5374 0011730 325.9355  62.1137 14.10823593583438
YAOGAN 13               
1 37941U 11072A   23031.58912363  .00010027  00000+0  41248-3 0  9992
2 37941  97.6622 350.6483 0001748  47.3341   7.8862 15.24356247619511
PLEIADES 1A             
1 38012U 11076F   23031.48037089  .00000605  00000+0  13981-3 0  9992
2 38012  98.1781 108.1768 0001453  75.9371 284.1973 14.58589634592313
ZIYUAN 1-02C (ZY 1-02C) 
1 38038U 11079A   23031.48443875  .00000389  00000+0  14851-3 0  9993
2 38038  98.5612  99.8023 0007315  32.3024 327.8602 14.36124317582203
ZIYUAN 3-1 (ZY 3-1)     
1 38046U 12001A   23031.59655657  .00007985  00000+0  35339-3 0  9996
2 38046  97.3150 101.5127 0001484  94.6443  11.4701 15.21923348614296
ARIRANG-3 (KOMPSAT-3)   
1 38338U 12025B   23031.45552155  .00000993  00000+0  20921-3 0  9993
2 38338  98.2053 334.4712 0010872  16.3708 343.7815 14.61623891571286
KANOPUS-V 1             
1 38707U 12039A   23031.03634283  .00016315  00000+0  64570-3 0  9998
2 38707  97.4751 317.0614 0002754  51.7762 308.3298 15.25522009584043
EXACTVIEW-1 (ADS-1B)    
1 38709U 12039C   23031.47301046  .00000108  00000+0  66977-4 0  9993
2 38709  98.9842 108.3192 0011871 120.9120 239.3227 14.24164984547193
SPOT 6                  
1 38755U 12047A   23031.49663491  .00000591  00000+0  13708-3 0  9999
2 38755  98.2076 100.7077 0001069  83.9905 276.1402 14.58551842553394
PLEIADES 1B             
1 39019U 12068A   23031.51467558  .00000602  00000+0  13944-3 0  9990
2 39019  98.2092 108.1327 0001252  83.9191 276.2137 14.58540160541177
GOKTURK 2               
1 39030U 12073A   23031.48909918  .00000782  00000+0  12921-3 0  9999
2 39030  97.8239 267.6082 0001828  59.9856 300.1493 14.72975950542928
LANDSAT 8               
1 39084U 13008A   23031.54487053  .00000385  00000+0  95528-4 0  9999
2 39084  98.1976 103.6471 0001090  81.5094 278.6228 14.57111863518393
